STARLINK-5520           
1 57219U 23094B   26068.27637622  .00000089  00000+0  21674-4 0  9999
2 57219  43.0044  32.9342 0001316 267.5641  92.5051 15.02536069147052
SEDNA-1                 
1 60580U 24149DS  26068.76583836  .00008721  00000+0  60834-3 0  9998
2 60580  97.6673 149.7617 0008344 330.8481  29.2278 15.05597965 85421
